{
    "links": {
        "self": "http://www.neowsapp.com/rest/v1/neo/3647017?api_key=iIulBulltgU6a56xZRHN4H3l9WmuAYTsLGpBGhQ2"
    },
    "id": "3647017",
    "neo_reference_id": "3647017",
    "name": "(2013 RV5)",
    "designation": "2013 RV5",
    "nasa_jpl_url": "http://ssd.jpl.nasa.gov/sbdb.cgi?sstr=3647017",
    "absolute_magnitude_h": 22.8,
    "estimated_diameter": {
        "kilometers": {
            "estimated_diameter_min": 0.0732073989,
            "estimated_diameter_max": 0.1636967205
        },
        "meters": {
            "estimated_diameter_min": 73.2073989347,
            "estimated_diameter_max": 163.696720474
        },
        "miles": {
            "estimated_diameter_min": 0.0454889547,
            "estimated_diameter_max": 0.1017163949
        },
        "feet": {
            "estimated_diameter_min": 240.181762721,
            "estimated_diameter_max": 537.0627483999
        }
    },
    "is_potentially_hazardous_asteroid": false,
    "close_approach_data": [
        {
            "close_approach_date": "2013-08-28",
            "close_approach_date_full": "2013-Aug-28 09:43",
            "epoch_date_close_approach": 1377682980000,
            "relative_velocity": {
                "kilometers_per_second": "13.8023210302",
                "kilometers_per_hour": "49688.3557087906",
                "miles_per_hour": "30874.4119124982"
            },
            "miss_distance": {
                "astronomical": "0.1973162223",
                "lunar": "76.7560104747",
                "kilometers": "29518086.572526501",
                "miles": "18341688.4807716738"
            },
            "orbiting_body": "Earth"
        }
    ],
    "orbital_data": {
        "orbit_id": "6",
        "orbit_determination_date": "2017-04-06 08:44:55",
        "first_observation_date": "2013-09-01",
        "last_observation_date": "2013-09-06",
        "data_arc_in_days": 5,
        "observations_used": 36,
        "orbit_uncertainty": "8",
        "minimum_orbit_intersection": ".187638",
        "jupiter_tisserand_invariant": "4.579",
        "epoch_osculation": "2456537.5",
        "eccentricity": ".1976287282670351",
        "semi_major_axis": "1.41966483878827",
        "inclination": "26.88668491073231",
        "ascending_node_longitude": "160.468201355118",
        "orbital_period": "617.8416279345533",
        "perihelion_distance": "1.139098282133119",
        "perihelion_argument": "131.6152508376653",
        "aphelion_distance": "1.700231395443421",
        "perihelion_time": "2456479.843739731922",
        "mean_anomaly": "33.59478021236009",
        "mean_motion": ".5826735909710086",
        "equinox": "J2000",
        "orbit_class": {
            "orbit_class_type": "AMO",
            "orbit_class_description": "Near-Earth asteroid orbits similar to that of 1221 Amor",
            "orbit_class_range": "1.017 AU < q (perihelion) < 1.3 AU"
        }
    },
    "is_sentry_object": false
}